<?xml version='1.0' encoding='UTF-8'?>
<gpx xmlns="http://www.topografix.com/GPX/1/1" version="1.1" creator="EIDOS_HYLE_TT">
  <trk>
    <name>Rumoi City Road Cycling</name>
    <type>road_biking</type>
    <trkseg>
      <trkpt lat="44.03762952424586" lon="141.66313290596008">
        <ele>5.400000095367432</ele>
      </trkpt>
      <trkpt lat="44.03762944042683" lon="141.66313290596008">
        <ele>5.400000095367432</ele>
      </trkpt>
      <trkpt lat="44.03762944042683" lon="141.66313290596008">
        <ele>5.400000095367432</ele>
      </trkpt>
      <trkpt lat="44.03762944042683" lon="141.66313290596008">
        <ele>5.400000095367432</ele>
      </trkpt>
      <trkpt lat="44.03762944042683" lon="141.66313282214105">
        <ele>5.400000095367432</ele>
      </trkpt>
      <trkpt lat="44.03762944042683" lon="141.66313282214105">
        <ele>5.400000095367432</ele>
      </trkpt>
      <trkpt lat="44.03762944042683" lon="141.66313282214105">
        <ele>5.400000095367432</ele>
      </trkpt>
      <trkpt lat="44.03762944042683" lon="141.66313282214105">
        <ele>5.400000095367432</ele>
      </trkpt>
      <trkpt lat="44.037629356607795" lon="141.66313282214105">
        <ele>5.400000095367432</ele>
      </trkpt>
      <trkpt lat="44.037629356607795" lon="141.66313273832202">
        <ele>5.400000095367432</ele>
      </trkpt>
      <trkpt lat="44.037629356607795" lon="141.66313273832202">
        <ele>5.400000095367432</ele>
      </trkpt>
      <trkpt lat="44.037629356607795" lon="141.66313273832202">
        <ele>5.400000095367432</ele>
      </trkpt>
      <trkpt lat="44.03762927278876" lon="141.66313273832202">
        <ele>5.400000095367432</ele>
      </trkpt>
      <trkpt lat="44.03762927278876" lon="141.663132654503">
        <ele>5.400000095367432</ele>
      </trkpt>
      <trkpt lat="44.03762927278876" lon="141.663132654503">
        <ele>5.400000095367432</ele>
      </trkpt>
      <trkpt lat="44.03762927278876" lon="141.663132654503">
        <ele>5.400000095367432</ele>
      </trkpt>
      <trkpt lat="44.03762918896973" lon="141.663132654503">
        <ele>5.400000095367432</ele>
      </trkpt>
      <trkpt lat="44.03762918896973" lon="141.66313257068396">
        <ele>5.400000095367432</ele>
      </trkpt>
      <trkpt lat="44.0376291051507" lon="141.66313257068396">
        <ele>5.199999809265137</ele>
      </trkpt>
      <trkpt lat="44.0376291051507" lon="141.66313257068396">
        <ele>5.199999809265137</ele>
      </trkpt>
      <trkpt lat="44.03762902133167" lon="141.66313248686492">
        <ele>5.199999809265137</ele>
      </trkpt>
      <trkpt lat="44.03762902133167" lon="141.66313248686492">
        <ele>5.199999809265137</ele>
      </trkpt>
      <trkpt lat="44.03762902133167" lon="141.66313248686492">
        <ele>5.199999809265137</ele>
      </trkpt>
      <trkpt lat="44.037628937512636" lon="141.6631324030459">
        <ele>5.199999809265137</ele>
      </trkpt>
      <trkpt lat="44.037628937512636" lon="141.6631324030459">
        <ele>5.199999809265137</ele>
      </trkpt>
      <trkpt lat="44.037628853693604" lon="141.6631324030459">
        <ele>5.199999809265137</ele>
      </trkpt>
      <trkpt lat="44.037628853693604" lon="141.6631324030459">
        <ele>5.199999809265137</ele>
      </trkpt>
      <trkpt lat="44.037628853693604" lon="141.66313231922686">
        <ele>5.199999809265137</ele>
      </trkpt>
      <trkpt lat="44.03762876987457" lon="141.66313231922686">
        <ele>5.199999809265137</ele>
      </trkpt>
      <trkpt lat="44.03762876987457" lon="141.66313231922686">
        <ele>5.199999809265137</ele>
      </trkpt>
      <trkpt lat="44.03762868605554" lon="141.66313223540783">
        <ele>5.199999809265137</ele>
      </trkpt>
      <trkpt lat="44.03762868605554" lon="141.66313223540783">
        <ele>5.199999809265137</ele>
      </trkpt>
      <trkpt lat="44.03762868605554" lon="141.66313223540783">
        <ele>5.199999809265137</ele>
      </trkpt>
      <trkpt lat="44.03762860223651" lon="141.6631321515888">
        <ele>5.199999809265137</ele>
      </trkpt>
      <trkpt lat="44.03762860223651" lon="141.6631321515888">
        <ele>5.199999809265137</ele>
      </trkpt>
      <trkpt lat="44.03762851841748" lon="141.6631321515888">
        <ele>5.199999809265137</ele>
      </trkpt>
      <trkpt lat="44.03762851841748" lon="141.6631321515888">
        <ele>5</ele>
      </trkpt>
      <trkpt lat="44.037628434598446" lon="141.66313206776977">
        <ele>5</ele>
      </trkpt>
      <trkpt lat="44.037628434598446" lon="141.66313206776977">
        <ele>5</ele>
      </trkpt>
      <trkpt lat="44.037628434598446" lon="141.66313206776977">
        <ele>5</ele>
      </trkpt>
      <trkpt lat="44.037628350779414" lon="141.66313198395073">
        <ele>5</ele>
      </trkpt>
      <trkpt lat="44.037628350779414" lon="141.66313198395073">
        <ele>5</ele>
      </trkpt>
      <trkpt lat="44.03762826696038" lon="141.66313198395073">
        <ele>5</ele>
      </trkpt>
      <trkpt lat="44.03762826696038" lon="141.6631319001317">
        <ele>5</ele>
      </trkpt>
      <trkpt lat="44.03762826696038" lon="141.6631319001317">
        <ele>5</ele>
      </trkpt>
      <trkpt lat="44.03762818314135" lon="141.6631319001317">
        <ele>5</ele>
      </trkpt>
      <trkpt lat="44.03762818314135" lon="141.6631319001317">
        <ele>5</ele>
      </trkpt>
      <trkpt lat="44.03762809932232" lon="141.66313181631267">
        <ele>5</ele>
      </trkpt>
      <trkpt lat="44.03762809932232" lon="141.66313181631267">
        <ele>5</ele>
      </trkpt>
      <trkpt lat="44.03762809932232" lon="141.66313181631267">
        <ele>5</ele>
      </trkpt>
      <trkpt lat="44.03762801550329" lon="141.66313173249364">
        <ele>5</ele>
      </trkpt>
      <trkpt lat="44.03762801550329" lon="141.66313173249364">
        <ele>5</ele>
      </trkpt>
      <trkpt lat="44.037627931684256" lon="141.66313173249364">
        <ele>5</ele>
      </trkpt>
      <trkpt lat="44.037627931684256" lon="141.66313173249364">
        <ele>5</ele>
      </trkpt>
      <trkpt lat="44.037627931684256" lon="141.6631316486746">
        <ele>5</ele>
      </trkpt>
      <trkpt lat="44.037627847865224" lon="141.6631316486746">
        <ele>5</ele>
      </trkpt>
      <trkpt lat="44.037627847865224" lon="141.6631316486746">
        <ele>5</ele>
      </trkpt>
      <trkpt lat="44.037627847865224" lon="141.66313156485558">
        <ele>5</ele>
      </trkpt>
      <trkpt lat="44.03762776404619" lon="141.66313156485558">
        <ele>5</ele>
      </trkpt>
      <trkpt lat="44.03762776404619" lon="141.66313156485558">
        <ele>5</ele>
      </trkpt>
      <trkpt lat="44.03762768022716" lon="141.66313156485558">
        <ele>5</ele>
      </trkpt>
      <trkpt lat="44.03762768022716" lon="141.66313148103654">
        <ele>5</ele>
      </trkpt>
      <trkpt lat="44.03762768022716" lon="141.66313148103654">
        <ele>5</ele>
      </trkpt>
      <trkpt lat="44.03762759640813" lon="141.66313148103654">
        <ele>5</ele>
      </trkpt>
      <trkpt lat="44.03762759640813" lon="141.6631313972175">
        <ele>5</ele>
      </trkpt>
      <trkpt lat="44.0376275125891" lon="141.6631313972175">
        <ele>5</ele>
      </trkpt>
      <trkpt lat="44.0376275125891" lon="141.6631313972175">
        <ele>5</ele>
      </trkpt>
      <trkpt lat="44.0376275125891" lon="141.6631313972175">
        <ele>5</ele>
      </trkpt>
      <trkpt lat="44.037627428770065" lon="141.66313131339848">
        <ele>4.800000190734863</ele>
      </trkpt>
      <trkpt lat="44.037627428770065" lon="141.66313131339848">
        <ele>4.800000190734863</ele>
      </trkpt>
      <trkpt lat="44.037627344951034" lon="141.66313131339848">
        <ele>4.800000190734863</ele>
      </trkpt>
      <trkpt lat="44.037627344951034" lon="141.66313131339848">
        <ele>4.800000190734863</ele>
      </trkpt>
      <trkpt lat="44.037627344951034" lon="141.66313122957945">
        <ele>4.800000190734863</ele>
      </trkpt>
      <trkpt lat="44.037627261132" lon="141.66313122957945">
        <ele>4.800000190734863</ele>
      </trkpt>
      <trkpt lat="44.037627261132" lon="141.66313122957945">
        <ele>5</ele>
      </trkpt>
      <trkpt lat="44.03762717731297" lon="141.66313114576042">
        <ele>5</ele>
      </trkpt>
      <trkpt lat="44.03762717731297" lon="141.66313114576042">
        <ele>4.800000190734863</ele>
      </trkpt>
      <trkpt lat="44.03762709349394" lon="141.66313114576042">
        <ele>4.800000190734863</ele>
      </trkpt>
      <trkpt lat="44.03762709349394" lon="141.66313106194139">
        <ele>4.800000190734863</ele>
      </trkpt>
      <trkpt lat="44.03762700967491" lon="141.66313106194139">
        <ele>4.800000190734863</ele>
      </trkpt>
      <trkpt lat="44.03762700967491" lon="141.66313106194139">
        <ele>4.800000190734863</ele>
      </trkpt>
      <trkpt lat="44.037626925855875" lon="141.66313097812235">
        <ele>5</ele>
      </trkpt>
      <trkpt lat="44.037626925855875" lon="141.66313097812235">
        <ele>5</ele>
      </trkpt>
      <trkpt lat="44.03762684203684" lon="141.66313097812235">
        <ele>5</ele>
      </trkpt>
      <trkpt lat="44.03762684203684" lon="141.66313089430332">
        <ele>5</ele>
      </trkpt>
      <trkpt lat="44.03762675821781" lon="141.66313089430332">
        <ele>5</ele>
      </trkpt>
      <trkpt lat="44.03762675821781" lon="141.66313089430332">
        <ele>5</ele>
      </trkpt>
      <trkpt lat="44.03762667439878" lon="141.6631308104843">
        <ele>5</ele>
      </trkpt>
      <trkpt lat="44.03762667439878" lon="141.6631308104843">
        <ele>5</ele>
      </trkpt>
      <trkpt lat="44.03762659057975" lon="141.6631308104843">
        <ele>5</ele>
      </trkpt>
      <trkpt lat="44.03762659057975" lon="141.6631308104843">
        <ele>5</ele>
      </trkpt>
      <trkpt lat="44.037626506760716" lon="141.66313072666526">
        <ele>5</ele>
      </trkpt>
      <trkpt lat="44.037626506760716" lon="141.66313072666526">
        <ele>5</ele>
      </trkpt>
      <trkpt lat="44.037626422941685" lon="141.66313072666526">
        <ele>5</ele>
      </trkpt>
      <trkpt lat="44.037626422941685" lon="141.66313064284623">
        <ele>5</ele>
      </trkpt>
      <trkpt lat="44.03762633912265" lon="141.66313064284623">
        <ele>5</ele>
      </trkpt>
      <trkpt lat="44.03762633912265" lon="141.66313064284623">
        <ele>5</ele>
      </trkpt>
      <trkpt lat="44.03762625530362" lon="141.6631305590272">
        <ele>5</ele>
      </trkpt>
      <trkpt lat="44.03762625530362" lon="141.6631305590272">
        <ele>5</ele>
      </trkpt>
      <trkpt lat="44.03762617148459" lon="141.6631305590272">
        <ele>5</ele>
      </trkpt>
      <trkpt lat="44.03762617148459" lon="141.66313047520816">
        <ele>5</ele>
      </trkpt>
      <trkpt lat="44.03762608766556" lon="141.66313047520816">
        <ele>5</ele>
      </trkpt>
      <trkpt lat="44.03762608766556" lon="141.66313047520816">
        <ele>4.800000190734863</ele>
      </trkpt>
      <trkpt lat="44.037626003846526" lon="141.66313039138913">
        <ele>4.800000190734863</ele>
      </trkpt>
      <trkpt lat="44.037626003846526" lon="141.66313039138913">
        <ele>4.800000190734863</ele>
      </trkpt>
      <trkpt lat="44.037625920027494" lon="141.66313039138913">
        <ele>4.800000190734863</ele>
      </trkpt>
      <trkpt lat="44.037625920027494" lon="141.66313039138913">
        <ele>4.800000190734863</ele>
      </trkpt>
      <trkpt lat="44.03762583620846" lon="141.6631303075701">
        <ele>4.800000190734863</ele>
      </trkpt>
      <trkpt lat="44.03762583620846" lon="141.6631303075701">
        <ele>4.800000190734863</ele>
      </trkpt>
      <trkpt lat="44.03762575238943" lon="141.6631303075701">
        <ele>4.800000190734863</ele>
      </trkpt>
      <trkpt lat="44.03762575238943" lon="141.66313022375107">
        <ele>4.800000190734863</ele>
      </trkpt>
      <trkpt lat="44.0376256685704" lon="141.66313022375107">
        <ele>5</ele>
      </trkpt>
      <trkpt lat="44.0376256685704" lon="141.66313022375107">
        <ele>5</ele>
      </trkpt>
      <trkpt lat="44.03762558475137" lon="141.66313013993204">
        <ele>5</ele>
      </trkpt>
      <trkpt lat="44.03762558475137" lon="141.66313013993204">
        <ele>5</ele>
      </trkpt>
      <trkpt lat="44.037625500932336" lon="141.66313013993204">
        <ele>5</ele>
      </trkpt>
      <trkpt lat="44.037625500932336" lon="141.663130056113">
        <ele>5</ele>
      </trkpt>
      <trkpt lat="44.037625417113304" lon="141.663130056113">
        <ele>5</ele>
      </trkpt>
      <trkpt lat="44.037625417113304" lon="141.663130056113">
        <ele>5</ele>
      </trkpt>
      <trkpt lat="44.03762533329427" lon="141.663130056113">
        <ele>5</ele>
      </trkpt>
      <trkpt lat="44.03762533329427" lon="141.66312997229397">
        <ele>5</ele>
      </trkpt>
      <trkpt lat="44.03762524947524" lon="141.66312997229397">
        <ele>5</ele>
      </trkpt>
      <trkpt lat="44.03762524947524" lon="141.66312997229397">
        <ele>5</ele>
      </trkpt>
      <trkpt lat="44.03762516565621" lon="141.66312988847494">
        <ele>5</ele>
      </trkpt>
      <trkpt lat="44.03762516565621" lon="141.66312988847494">
        <ele>5</ele>
      </trkpt>
      <trkpt lat="44.03762516565621" lon="141.66312988847494">
        <ele>5</ele>
      </trkpt>
      <trkpt lat="44.03762508183718" lon="141.6631298046559">
        <ele>5</ele>
      </trkpt>
      <trkpt lat="44.03762508183718" lon="141.6631298046559">
        <ele>5</ele>
      </trkpt>
      <trkpt lat="44.037624998018146" lon="141.6631298046559">
        <ele>5</ele>
      </trkpt>
      <trkpt lat="44.037624998018146" lon="141.6631298046559">
        <ele>5</ele>
      </trkpt>
      <trkpt lat="44.037624914199114" lon="141.66312972083688">
        <ele>5</ele>
      </trkpt>
      <trkpt lat="44.037624914199114" lon="141.66312972083688">
        <ele>5</ele>
      </trkpt>
      <trkpt lat="44.03762483038008" lon="141.66312972083688">
        <ele>5</ele>
      </trkpt>
      <trkpt lat="44.03762474656105" lon="141.66312963701785">
        <ele>5</ele>
      </trkpt>
      <trkpt lat="44.03762466274202" lon="141.66312963701785">
        <ele>5</ele>
      </trkpt>
      <trkpt lat="44.03762457892299" lon="141.66312955319881">
        <ele>5</ele>
      </trkpt>
      <trkpt lat="44.037624495103955" lon="141.66312955319881">
        <ele>5</ele>
      </trkpt>
      <trkpt lat="44.037624495103955" lon="141.66312955319881">
        <ele>4.800000190734863</ele>
      </trkpt>
      <trkpt lat="44.037624411284924" lon="141.66312946937978">
        <ele>5</ele>
      </trkpt>
      <trkpt lat="44.03762432746589" lon="141.66312946937978">
        <ele>5</ele>
      </trkpt>
      <trkpt lat="44.03762424364686" lon="141.66312946937978">
        <ele>4.800000190734863</ele>
      </trkpt>
      <trkpt lat="44.03762415982783" lon="141.66312938556075">
        <ele>4.800000190734863</ele>
      </trkpt>
      <trkpt lat="44.0376240760088" lon="141.66312938556075">
        <ele>4.800000190734863</ele>
      </trkpt>
      <trkpt lat="44.0376240760088" lon="141.66312938556075">
        <ele>4.800000190734863</ele>
      </trkpt>
      <trkpt lat="44.037623992189765" lon="141.66312930174172">
        <ele>4.800000190734863</ele>
      </trkpt>
      <trkpt lat="44.03762390837073" lon="141.66312930174172">
        <ele>4.800000190734863</ele>
      </trkpt>
      <trkpt lat="44.0376238245517" lon="141.6631292179227">
        <ele>4.800000190734863</ele>
      </trkpt>
      <trkpt lat="44.03762374073267" lon="141.6631292179227">
        <ele>4.800000190734863</ele>
      </trkpt>
      <trkpt lat="44.03762374073267" lon="141.6631292179227">
        <ele>4.800000190734863</ele>
      </trkpt>
      <trkpt lat="44.03762365691364" lon="141.66312913410366">
        <ele>4.800000190734863</ele>
      </trkpt>
      <trkpt lat="44.037623573094606" lon="141.66312913410366">
        <ele>4.800000190734863</ele>
      </trkpt>
      <trkpt lat="44.037623489275575" lon="141.66312913410366">
        <ele>4.800000190734863</ele>
      </trkpt>
      <trkpt lat="44.03762340545654" lon="141.66312905028462">
        <ele>4.800000190734863</ele>
      </trkpt>
      <trkpt lat="44.03762332163751" lon="141.66312905028462">
        <ele>4.800000190734863</ele>
      </trkpt>
      <trkpt lat="44.03762332163751" lon="141.66312905028462">
        <ele>4.800000190734863</ele>
      </trkpt>
      <trkpt lat="44.03762323781848" lon="141.6631289664656">
        <ele>4.800000190734863</ele>
      </trkpt>
      <trkpt lat="44.03762315399945" lon="141.6631289664656">
        <ele>4.800000190734863</ele>
      </trkpt>
      <trkpt lat="44.037623070180416" lon="141.6631289664656">
        <ele>4.800000190734863</ele>
      </trkpt>
      <trkpt lat="44.037622986361384" lon="141.66312888264656">
        <ele>4.800000190734863</ele>
      </trkpt>
      <trkpt lat="44.03762290254235" lon="141.66312888264656">
        <ele>4.800000190734863</ele>
      </trkpt>
      <trkpt lat="44.03762281872332" lon="141.66312879882753">
        <ele>4.800000190734863</ele>
      </trkpt>
      <trkpt lat="44.03762273490429" lon="141.66312879882753">
        <ele>4.800000190734863</ele>
      </trkpt>
      <trkpt lat="44.03762265108526" lon="141.6631287150085">
        <ele>4.800000190734863</ele>
      </trkpt>
      <trkpt lat="44.037622567266226" lon="141.6631287150085">
        <ele>4.800000190734863</ele>
      </trkpt>
      <trkpt lat="44.037622483447194" lon="141.66312863118947">
        <ele>4.800000190734863</ele>
      </trkpt>
      <trkpt lat="44.03762239962816" lon="141.66312863118947">
        <ele>4.800000190734863</ele>
      </trkpt>
      <trkpt lat="44.0376222319901" lon="141.66312854737043">
        <ele>4.800000190734863</ele>
      </trkpt>
      <trkpt lat="44.03762214817107" lon="141.66312854737043">
        <ele>4.800000190734863</ele>
      </trkpt>
      <trkpt lat="44.037622064352036" lon="141.6631284635514">
        <ele>4.800000190734863</ele>
      </trkpt>
      <trkpt lat="44.037621980533004" lon="141.6631284635514">
        <ele>4.800000190734863</ele>
      </trkpt>
      <trkpt lat="44.03762189671397" lon="141.6631284635514">
        <ele>4.800000190734863</ele>
      </trkpt>
      <trkpt lat="44.03762181289494" lon="141.66312837973237">
        <ele>4.800000190734863</ele>
      </trkpt>
      <trkpt lat="44.03762164525688" lon="141.66312837973237">
        <ele>4.800000190734863</ele>
      </trkpt>
      <trkpt lat="44.037621561437845" lon="141.66312829591334">
        <ele>4.800000190734863</ele>
      </trkpt>
      <trkpt lat="44.03762147761881" lon="141.66312829591334">
        <ele>4.800000190734863</ele>
      </trkpt>
      <trkpt lat="44.03762139379978" lon="141.6631282120943">
        <ele>4.800000190734863</ele>
      </trkpt>
      <trkpt lat="44.03762130998075" lon="141.6631282120943">
        <ele>4.800000190734863</ele>
      </trkpt>
      <trkpt lat="44.03762122616172" lon="141.66312812827528">
        <ele>4.800000190734863</ele>
      </trkpt>
      <trkpt lat="44.037621058523655" lon="141.66312812827528">
        <ele>4.800000190734863</ele>
      </trkpt>
      <trkpt lat="44.03762097470462" lon="141.66312804445624">
        <ele>4.800000190734863</ele>
      </trkpt>
      <trkpt lat="44.03762089088559" lon="141.66312804445624">
        <ele>4.800000190734863</ele>
      </trkpt>
      <trkpt lat="44.03762080706656" lon="141.6631279606372">
        <ele>4.800000190734863</ele>
      </trkpt>
      <trkpt lat="44.03762072324753" lon="141.6631279606372">
        <ele>4.800000190734863</ele>
      </trkpt>
      <trkpt lat="44.037620639428496" lon="141.66312787681818">
        <ele>4.800000190734863</ele>
      </trkpt>
      <trkpt lat="44.037620555609465" lon="141.66312787681818">
        <ele>4.800000190734863</ele>
      </trkpt>
      <trkpt lat="44.0376203879714" lon="141.66312779299915">
        <ele>4.800000190734863</ele>
      </trkpt>
      <trkpt lat="44.03762030415237" lon="141.66312779299915">
        <ele>4.800000190734863</ele>
      </trkpt>
      <trkpt lat="44.03762022033334" lon="141.66312779299915">
        <ele>4.800000190734863</ele>
      </trkpt>
      <trkpt lat="44.037620136514306" lon="141.66312770918012">
        <ele>4.800000190734863</ele>
      </trkpt>
      <trkpt lat="44.037620052695274" lon="141.66312762536108">
        <ele>4.800000190734863</ele>
      </trkpt>
      <trkpt lat="44.03761988505721" lon="141.66312762536108">
        <ele>4.800000190734863</ele>
      </trkpt>
      <trkpt lat="44.03761971741915" lon="141.66312754154205">
        <ele>4.800000190734863</ele>
      </trkpt>
      <trkpt lat="44.037619549781084" lon="141.66312745772302">
        <ele>4.800000190734863</ele>
      </trkpt>
      <trkpt lat="44.03761946596205" lon="141.66312745772302">
        <ele>4.800000190734863</ele>
      </trkpt>
      <trkpt lat="44.03761929832399" lon="141.663127373904">
        <ele>4.800000190734863</ele>
      </trkpt>
      <trkpt lat="44.037619130685925" lon="141.66312729008496">
        <ele>4.800000190734863</ele>
      </trkpt>
      <trkpt lat="44.03761896304786" lon="141.66312720626593">
        <ele>4.800000190734863</ele>
      </trkpt>
      <trkpt lat="44.0376187954098" lon="141.66312720626593">
        <ele>4.800000190734863</ele>
      </trkpt>
      <trkpt lat="44.03761871159077" lon="141.6631271224469">
        <ele>4.800000190734863</ele>
      </trkpt>
      <trkpt lat="44.0376185439527" lon="141.66312703862786">
        <ele>4.800000190734863</ele>
      </trkpt>
      <trkpt lat="44.03761837631464" lon="141.66312695480883">
        <ele>4.800000190734863</ele>
      </trkpt>
      <trkpt lat="44.03761820867658" lon="141.66312695480883">
        <ele>4.800000190734863</ele>
      </trkpt>
      <trkpt lat="44.03761804103851" lon="141.6631268709898">
        <ele>4.800000190734863</ele>
      </trkpt>
      <trkpt lat="44.03761795721948" lon="141.66312678717077">
        <ele>4.800000190734863</ele>
      </trkpt>
      <trkpt lat="44.03761778958142" lon="141.66312678717077">
        <ele>4.800000190734863</ele>
      </trkpt>
      <trkpt lat="44.037617621943355" lon="141.66312670335174">
        <ele>4.800000190734863</ele>
      </trkpt>
      <trkpt lat="44.03760530054569" lon="141.66312276385725">
        <ele>4.800000190734863</ele>
      </trkpt>
      <trkpt lat="44.037589794024825" lon="141.6631176508963">
        <ele>4.800000190734863</ele>
      </trkpt>
      <trkpt lat="44.037589794024825" lon="141.6631176508963">
        <ele>4.800000190734863</ele>
      </trkpt>
      <trkpt lat="44.037589794024825" lon="141.6631176508963">
        <ele>4.800000190734863</ele>
      </trkpt>
      <trkpt lat="44.037589794024825" lon="141.6631176508963">
        <ele>5</ele>
      </trkpt>
      <trkpt lat="44.03757990337908" lon="141.66311454959214">
        <ele>5</ele>
      </trkpt>
      <trkpt lat="44.03757009655237" lon="141.66311144828796">
        <ele>5</ele>
      </trkpt>
      <trkpt lat="44.03756020590663" lon="141.66310826316476">
        <ele>5</ele>
      </trkpt>
      <trkpt lat="44.03755039907992" lon="141.66310516186059">
        <ele>5</ele>
      </trkpt>
      <trkpt lat="44.037540508434176" lon="141.66310197673738">
        <ele>5</ele>
      </trkpt>
      <trkpt lat="44.037530617788434" lon="141.6630988754332">
        <ele>5</ele>
      </trkpt>
      <trkpt lat="44.03752081096172" lon="141.66309577412903">
        <ele>5</ele>
      </trkpt>
      <trkpt lat="44.03751092031598" lon="141.66309258900583">
        <ele>5</ele>
      </trkpt>
      <trkpt lat="44.03751092031598" lon="141.66309258900583">
        <ele>5</ele>
      </trkpt>
      <trkpt lat="44.03751092031598" lon="141.66309258900583">
        <ele>5</ele>
      </trkpt>
      <trkpt lat="44.03751092031598" lon="141.66309258900583">
        <ele>5</ele>
      </trkpt>
      <trkpt lat="44.03751092031598" lon="141.66309258900583">
        <ele>5</ele>
      </trkpt>
      <trkpt lat="44.03751092031598" lon="141.66309258900583">
        <ele>5</ele>
      </trkpt>
      <trkpt lat="44.03751092031598" lon="141.66309258900583">
        <ele>5</ele>
      </trkpt>
      <trkpt lat="44.03749180957675" lon="141.66308655403554">
        <ele>5</ele>
      </trkpt>
      <trkpt lat="44.03749130666256" lon="141.66308630257845">
        <ele>5</ele>
      </trkpt>
      <trkpt lat="44.03749122284353" lon="141.66308630257845">
        <ele>5</ele>
      </trkpt>
      <trkpt lat="44.03749122284353" lon="141.66308630257845">
        <ele>5</ele>
      </trkpt>
      <trkpt lat="44.03749122284353" lon="141.66308630257845">
        <ele>5</ele>
      </trkpt>
      <trkpt lat="44.03749122284353" lon="141.66308630257845">
        <ele>5</ele>
      </trkpt>
      <trkpt lat="44.03749122284353" lon="141.66308630257845">
        <ele>5</ele>
      </trkpt>
      <trkpt lat="44.03749122284353" lon="141.66308630257845">
        <ele>5</ele>
      </trkpt>
      <trkpt lat="44.03748728334904" lon="141.66308546438813">
        <ele>5</ele>
      </trkpt>
      <trkpt lat="44.03742928057909" lon="141.66307540610433">
        <ele>5</ele>
      </trkpt>
      <trkpt lat="44.037374798208475" lon="141.6630650125444">
        <ele>5</ele>
      </trkpt>
      <trkpt lat="44.037299025803804" lon="141.6630486678332">
        <ele>4.800000190734863</ele>
      </trkpt>
      <trkpt lat="44.03721772134304" lon="141.66302687488496">
        <ele>4.800000190734863</ele>
      </trkpt>
      <trkpt lat="44.037129543721676" lon="141.66300390847027">
        <ele>4.599999904632568</ele>
      </trkpt>
      <trkpt lat="44.03701638802886" lon="141.66296945884824">
        <ele>4.599999904632568</ele>
      </trkpt>
      <trkpt lat="44.036933574825525" lon="141.6629389487207">
        <ele>4.400000095367432</ele>
      </trkpt>
      <trkpt lat="44.036837350577116" lon="141.66288807056844">
        <ele>4.199999809265137</ele>
      </trkpt>
      <trkpt lat="44.0367416292429" lon="141.66282235644758">
        <ele>4</ele>
      </trkpt>
      <trkpt lat="44.03664884157479" lon="141.66274767369032">
        <ele>3.799999952316284</ele>
      </trkpt>
      <trkpt lat="44.036561250686646" lon="141.66265999898314">
        <ele>3.200000047683716</ele>
      </trkpt>
      <trkpt lat="44.03647885657847" lon="141.66255983524024">
        <ele>3</ele>
      </trkpt>
      <trkpt lat="44.03640266507864" lon="141.66245128959417">
        <ele>3</ele>
      </trkpt>
      <trkpt lat="44.03632094152272" lon="141.66231038980186">
        <ele>2.799999952316284</ele>
      </trkpt>
      <trkpt lat="44.03626813553274" lon="141.66221022605896">
        <ele>2.799999952316284</ele>
      </trkpt>
      <trkpt lat="44.03620493598282" lon="141.66208659298718">
        <ele>2.5999999046325684</ele>
      </trkpt>
      <trkpt lat="44.03614073060453" lon="141.6619648039341">
        <ele>2.5999999046325684</ele>
      </trkpt>
      <trkpt lat="44.03607686050236" lon="141.6618432663381">
        <ele>2.5999999046325684</ele>
      </trkpt>
      <trkpt lat="44.03600201010704" lon="141.6617269255221">
        <ele>2.5999999046325684</ele>
      </trkpt>
      <trkpt lat="44.03592120856047" lon="141.6616207268089">
        <ele>2.5999999046325684</ele>
      </trkpt>
      <trkpt lat="44.035815512761474" lon="141.66151402518153">
        <ele>2.5999999046325684</ele>
      </trkpt>
      <trkpt lat="44.035745691508055" lon="141.6614399291575">
        <ele>2.5999999046325684</ele>
      </trkpt>
      <trkpt lat="44.03564871288836" lon="141.66136633604765">
        <ele>2.5999999046325684</ele>
      </trkpt>
      <trkpt lat="44.035544442012906" lon="141.66131369769573">
        <ele>2.5999999046325684</ele>
      </trkpt>
      <trkpt lat="44.03543799184263" lon="141.66127807460725">
        <ele>2.799999952316284</ele>
      </trkpt>
      <trkpt lat="44.035331290215254" lon="141.66126038879156">
        <ele>2.799999952316284</ele>
      </trkpt>
      <trkpt lat="44.035222912207246" lon="141.66125318035483">
        <ele>2.799999952316284</ele>
      </trkpt>
      <trkpt lat="44.03511277399957" lon="141.6612520068884">
        <ele>3</ele>
      </trkpt>
      <trkpt lat="44.03500221669674" lon="141.66125510819256">
        <ele>3</ele>
      </trkpt>
      <trkpt lat="44.03489090502262" lon="141.66126122698188">
        <ele>3.200000047683716</ele>
      </trkpt>
      <trkpt lat="44.03478177264333" lon="141.6612670943141">
        <ele>3.200000047683716</ele>
      </trkpt>
      <trkpt lat="44.03467138297856" lon="141.6612702794373">
        <ele>3.4000000953674316</ele>
      </trkpt>
      <trkpt lat="44.034561244770885" lon="141.66127061471343">
        <ele>3.4000000953674316</ele>
      </trkpt>
      <trkpt lat="44.0344534534961" lon="141.66127304546535">
        <ele>3.799999952316284</ele>
      </trkpt>
      <trkpt lat="44.03434440493584" lon="141.6612750571221">
        <ele>4</ele>
      </trkpt>
      <trkpt lat="44.03423611074686" lon="141.6612737160176">
        <ele>4</ele>
      </trkpt>
      <trkpt lat="44.03412722982466" lon="141.6612670943141">
        <ele>4</ele>
      </trkpt>
      <trkpt lat="44.03401851654053" lon="141.66125913150609">
        <ele>4.199999809265137</ele>
      </trkpt>
      <trkpt lat="44.03390879742801" lon="141.66124362498522">
        <ele>4.199999809265137</ele>
      </trkpt>
      <trkpt lat="44.0337988268584" lon="141.66122803464532">
        <ele>4.400000095367432</ele>
      </trkpt>
      <trkpt lat="44.03369044885039" lon="141.6612097620964">
        <ele>4.400000095367432</ele>
      </trkpt>
      <trkpt lat="44.03358031064272" lon="141.66119056753814">
        <ele>4.599999904632568</ele>
      </trkpt>
      <trkpt lat="44.03347034007311" lon="141.6611714567989">
        <ele>4.599999904632568</ele>
      </trkpt>
      <trkpt lat="44.03336145915091" lon="141.66115251369774">
        <ele>4.599999904632568</ele>
      </trkpt>
      <trkpt lat="44.033251740038395" lon="141.66113348677754">
        <ele>4.599999904632568</ele>
      </trkpt>
      <trkpt lat="44.03314009308815" lon="141.66111613623798">
        <ele>4.599999904632568</ele>
      </trkpt>
      <trkpt lat="44.033030876889825" lon="141.66109937243164">
        <ele>4.599999904632568</ele>
      </trkpt>
      <trkpt lat="44.032920990139246" lon="141.66108495555818">
        <ele>4.599999904632568</ele>
      </trkpt>
      <trkpt lat="44.032809343189" lon="141.66107514873147">
        <ele>4.599999904632568</ele>
      </trkpt>
      <trkpt lat="44.03269987553358" lon="141.6610644198954">
        <ele>4.599999904632568</ele>
      </trkpt>
      <trkpt lat="44.03259040787816" lon="141.66105293668807">
        <ele>4.599999904632568</ele>
      </trkpt>
      <trkpt lat="44.03245797380805" lon="141.6610403638333">
        <ele>4.400000095367432</ele>
      </trkpt>
      <trkpt lat="44.03237004764378" lon="141.66103290393949">
        <ele>4.400000095367432</ele>
      </trkpt>
      <trkpt lat="44.03225865215063" lon="141.66102485731244">
        <ele>4.400000095367432</ele>
      </trkpt>
      <trkpt lat="44.032148849219084" lon="141.66101555339992">
        <ele>4.400000095367432</ele>
      </trkpt>
      <trkpt lat="44.03204030357301" lon="141.66100717149675">
        <ele>4.400000095367432</ele>
      </trkpt>
      <trkpt lat="44.03193125501275" lon="141.66100080125034">
        <ele>4.400000095367432</ele>
      </trkpt>
      <trkpt lat="44.031821954995394" lon="141.66099392808974">
        <ele>4.199999809265137</ele>
      </trkpt>
      <trkpt lat="44.03171382844448" lon="141.66098579764366">
        <ele>4.199999809265137</ele>
      </trkpt>
      <trkpt lat="44.03160570189357" lon="141.66097599081695">
        <ele>4.199999809265137</ele>
      </trkpt>
      <trkpt lat="44.031496653333306" lon="141.6609658487141">
        <ele>4.199999809265137</ele>
      </trkpt>
      <trkpt lat="44.03138835914433" lon="141.6609610710293">
        <ele>4.199999809265137</ele>
      </trkpt>
      <trkpt lat="44.03128040023148" lon="141.66095428168774">
        <ele>4.199999809265137</ele>
      </trkpt>
      <trkpt lat="44.03117319568992" lon="141.66094774380326">
        <ele>4.199999809265137</ele>
      </trkpt>
      <trkpt lat="44.03106397949159" lon="141.66094087064266">
        <ele>4</ele>
      </trkpt>
      <trkpt lat="44.030957194045186" lon="141.6609354224056">
        <ele>4</ele>
      </trkpt>
      <trkpt lat="44.03082836419344" lon="141.66092586703598">
        <ele>4</ele>
      </trkpt>
      <trkpt lat="44.03074286878109" lon="141.66091832332313">
        <ele>4</ele>
      </trkpt>
      <trkpt lat="44.03063725680113" lon="141.6609084326774">
        <ele>4</ele>
      </trkpt>
      <trkpt lat="44.03053374029696" lon="141.6609010566026">
        <ele>4</ele>
      </trkpt>
      <trkpt lat="44.03043081052601" lon="141.66089200414717">
        <ele>4</ele>
      </trkpt>
      <trkpt lat="44.03032695874572" lon="141.6608849633485">
        <ele>4</ele>
      </trkpt>
      <trkpt lat="44.03022117912769" lon="141.66087934747338">
        <ele>4</ele>
      </trkpt>
      <trkpt lat="44.030114812776446" lon="141.66087239049375">
        <ele>4</ele>
      </trkpt>
      <trkpt lat="44.03000945225358" lon="141.6608622483909">
        <ele>4</ele>
      </trkpt>
      <trkpt lat="44.02990358881652" lon="141.66084967553616">
        <ele>4</ele>
      </trkpt>
      <trkpt lat="44.029799150303006" lon="141.6608426347375">
        <ele>4</ele>
      </trkpt>
      <trkpt lat="44.029694041237235" lon="141.66083668358624">
        <ele>4</ele>
      </trkpt>
      <trkpt lat="44.029589435085654" lon="141.66083240881562">
        <ele>3.799999952316284</ele>
      </trkpt>
      <trkpt lat="44.02948382310569" lon="141.66082721203566">
        <ele>3.799999952316284</ele>
      </trkpt>
      <trkpt lat="44.029357424005866" lon="141.66081681847572">
        <ele>3.799999952316284</ele>
      </trkpt>
      <trkpt lat="44.029357424005866" lon="141.66081681847572">
        <ele>3.799999952316284</ele>
      </trkpt>
      <trkpt lat="44.02915500104427" lon="141.66080189868808">
        <ele>3.5999999046325684</ele>
      </trkpt>
      <trkpt lat="44.02907310985029" lon="141.6608088556677">
        <ele>3.5999999046325684</ele>
      </trkpt>
      <trkpt lat="44.02897160500288" lon="141.6608320735395">
        <ele>3.5999999046325684</ele>
      </trkpt>
      <trkpt lat="44.02885333634913" lon="141.66088135913014">
        <ele>3.799999952316284</ele>
      </trkpt>
      <trkpt lat="44.028760716319084" lon="141.6609441395849">
        <ele>4</ele>
      </trkpt>
      <trkpt lat="44.02869106270373" lon="141.6610085964203">
        <ele>4.199999809265137</ele>
      </trkpt>
      <trkpt lat="44.028610261157155" lon="141.66110331192613">
        <ele>4</ele>
      </trkpt>
      <trkpt lat="44.02853976935148" lon="141.66121152229607">
        <ele>4.400000095367432</ele>
      </trkpt>
      <trkpt lat="44.028483191505075" lon="141.66133515536785">
        <ele>4.400000095367432</ele>
      </trkpt>
      <trkpt lat="44.028439689427614" lon="141.661470355466">
        <ele>4.400000095367432</ele>
      </trkpt>
      <trkpt lat="44.028407922014594" lon="141.66161335073411">
        <ele>4.400000095367432</ele>
      </trkpt>
      <trkpt lat="44.028390403836966" lon="141.66176145896316">
        <ele>4.400000095367432</ele>
      </trkpt>
      <trkpt lat="44.028389398008585" lon="141.66190973483026">
        <ele>4.800000190734863</ele>
      </trkpt>
      <trkpt lat="44.028402641415596" lon="141.6620573401451">
        <ele>4.599999904632568</ele>
      </trkpt>
      <trkpt lat="44.028423093259335" lon="141.6622015926987">
        <ele>4.599999904632568</ele>
      </trkpt>
      <trkpt lat="44.028447484597564" lon="141.66234718635678">
        <ele>4.800000190734863</ele>
      </trkpt>
      <trkpt lat="44.028470953926444" lon="141.6624912712723">
        <ele>4.800000190734863</ele>
      </trkpt>
      <trkpt lat="44.0284922439605" lon="141.66263644583523">
        <ele>4.800000190734863</ele>
      </trkpt>
      <trkpt lat="44.02851923368871" lon="141.66281196288764">
        <ele>4.800000190734863</ele>
      </trkpt>
      <trkpt lat="44.02853968553245" lon="141.6629278846085">
        <ele>4.800000190734863</ele>
      </trkpt>
      <trkpt lat="44.02856801636517" lon="141.66310197673738">
        <ele>4.800000190734863</ele>
      </trkpt>
      <trkpt lat="44.02858796529472" lon="141.66321630589664">
        <ele>4.800000190734863</ele>
      </trkpt>
      <trkpt lat="44.028611769899726" lon="141.66335879825056">
        <ele>4.800000190734863</ele>
      </trkpt>
      <trkpt lat="44.02863331139088" lon="141.66349986568093">
        <ele>4.800000190734863</ele>
      </trkpt>
      <trkpt lat="44.02865317650139" lon="141.66363892145455">
        <ele>4.800000190734863</ele>
      </trkpt>
      <trkpt lat="44.028671784326434" lon="141.66377630084753">
        <ele>5</ele>
      </trkpt>
      <trkpt lat="44.02869248762727" lon="141.66390697471797">
        <ele>5</ele>
      </trkpt>
      <trkpt lat="44.02871461585164" lon="141.6640352178365">
        <ele>5.199999809265137</ele>
      </trkpt>
      <trkpt lat="44.02873205021024" lon="141.6641649696976">
        <ele>5.199999809265137</ele>
      </trkpt>
      <trkpt lat="44.02874428778887" lon="141.66429413482547">
        <ele>5.199999809265137</ele>
      </trkpt>
      <trkpt lat="44.02875166386366" lon="141.6644248086959">
        <ele>5.400000095367432</ele>
      </trkpt>
      <trkpt lat="44.02875074185431" lon="141.66455405764282">
        <ele>5.599999904632568</ele>
      </trkpt>
      <trkpt lat="44.028741186484694" lon="141.6646827198565">
        <ele>5.599999904632568</ele>
      </trkpt>
      <trkpt lat="44.0287303738296" lon="141.66483208537102">
        <ele>6</ele>
      </trkpt>
      <trkpt lat="44.0287425275892" lon="141.66494155302644">
        <ele>6.199999809265137</ele>
      </trkpt>
      <trkpt lat="44.02877856977284" lon="141.66501246392727">
        <ele>6.599999904632568</ele>
      </trkpt>
      <trkpt lat="44.028824334964156" lon="141.66502956300974">
        <ele>6.800000190734863</ele>
      </trkpt>
      <trkpt lat="44.028887283056974" lon="141.66502294130623">
        <ele>7</ele>
      </trkpt>
      <trkpt lat="44.02895106934011" lon="141.66500232182443">
        <ele>7.599999904632568</ele>
      </trkpt>
      <trkpt lat="44.02901259250939" lon="141.66499335318804">
        <ele>8</ele>
      </trkpt>
      <trkpt lat="44.02907143346965" lon="141.6649988014251">
        <ele>8.800000190734863</ele>
      </trkpt>
      <trkpt lat="44.029122814536095" lon="141.66501933708787">
        <ele>9.199999809265137</ele>
      </trkpt>
      <trkpt lat="44.029162460938096" lon="141.66505261324346">
        <ele>9.800000190734863</ele>
      </trkpt>
      <trkpt lat="44.02919875457883" lon="141.66509217582643">
        <ele>10</ele>
      </trkpt>
      <trkpt lat="44.02922968380153" lon="141.66513391770422">
        <ele>10.399999618530273</ele>
      </trkpt>
      <trkpt lat="44.02925692498684" lon="141.66518186219037">
        <ele>11.399999618530273</ele>
      </trkpt>
      <trkpt lat="44.0292814001441" lon="141.66522469371557">
        <ele>11.600000381469727</ele>
      </trkpt>
      <trkpt lat="44.02930243872106" lon="141.66526459157467">
        <ele>12.199999809265137</ele>
      </trkpt>
      <trkpt lat="44.02932926081121" lon="141.66530993767083">
        <ele>12.600000381469727</ele>
      </trkpt>
      <trkpt lat="44.02934594079852" lon="141.66534136980772">
        <ele>13.199999809265137</ele>
      </trkpt>
      <trkpt lat="44.029367147013545" lon="141.66537690907717">
        <ele>13.600000381469727</ele>
      </trkpt>
      <trkpt lat="44.02938743121922" lon="141.66541228070855">
        <ele>14.199999809265137</ele>
      </trkpt>
      <trkpt lat="44.02940696105361" lon="141.6654496639967">
        <ele>15</ele>
      </trkpt>
      <trkpt lat="44.02942934073508" lon="141.6654945909977">
        <ele>15.399999618530273</ele>
      </trkpt>
      <trkpt lat="44.02944761328399" lon="141.66553063318133">
        <ele>16.200000762939453</ele>
      </trkpt>
      <trkpt lat="44.02946471236646" lon="141.66556508280337">
        <ele>16.399999618530273</ele>
      </trkpt>
      <trkpt lat="44.02947896160185" lon="141.66559366509318">
        <ele>16.799999237060547</ele>
      </trkpt>
      <trkpt lat="44.02949790470302" lon="141.66562652215362">
        <ele>17</ele>
      </trkpt>
      <trkpt lat="44.0295179374516" lon="141.66565560735762">
        <ele>17.799999237060547</ele>
      </trkpt>
      <trkpt lat="44.02953922748566" lon="141.6656836029142">
        <ele>18.200000762939453</ele>
      </trkpt>
      <trkpt lat="44.02956294827163" lon="141.6657221596688">
        <ele>18.600000381469727</ele>
      </trkpt>
      <trkpt lat="44.0295766107738" lon="141.66574906557798">
        <ele>18.799999237060547</ele>
      </trkpt>
      <trkpt lat="44.029598319903016" lon="141.66577773168683">
        <ele>19</ele>
      </trkpt>
      <trkpt lat="44.029621202498674" lon="141.665812516585">
        <ele>19.600000381469727</ele>
      </trkpt>
      <trkpt lat="44.0296355355531" lon="141.66584378108382">
        <ele>19.799999237060547</ele>
      </trkpt>
      <trkpt lat="44.02965062297881" lon="141.6658778116107">
        <ele>20.200000762939453</ele>
      </trkpt>
      <trkpt lat="44.029661770910025" lon="141.6659071482718">
        <ele>20.799999237060547</ele>
      </trkpt>
      <trkpt lat="44.029677947983146" lon="141.6659417655319">
        <ele>21</ele>
      </trkpt>
      <trkpt lat="44.02969630435109" lon="141.6659731976688">
        <ele>21.399999618530273</ele>
      </trkpt>
      <trkpt lat="44.029720360413194" lon="141.66601167060435">
        <ele>21.799999237060547</ele>
      </trkpt>
      <trkpt lat="44.02973687276244" lon="141.6660377383232">
        <ele>22.200000762939453</ele>
      </trkpt>
      <trkpt lat="44.02975782752037" lon="141.66606682352722">
        <ele>22.399999618530273</ele>
      </trkpt>
      <trkpt lat="44.029778530821204" lon="141.6660964116454">
        <ele>22.799999237060547</ele>
      </trkpt>
      <trkpt lat="44.02980568818748" lon="141.66612314991653">
        <ele>23.200000762939453</ele>
      </trkpt>
      <trkpt lat="44.029826978221536" lon="141.66613513603806">
        <ele>23.200000762939453</ele>
      </trkpt>
      <trkpt lat="44.029861092567444" lon="141.66614812798798">
        <ele>23.799999237060547</ele>
      </trkpt>
      <trkpt lat="44.02988816611469" lon="141.66614611633122">
        <ele>24.200000762939453</ele>
      </trkpt>
      <trkpt lat="44.029923202469945" lon="141.66613589040935">
        <ele>25</ele>
      </trkpt>
      <trkpt lat="44.02995723299682" lon="141.6661159414798">
        <ele>25.200000762939453</ele>
      </trkpt>
      <trkpt lat="44.02998690493405" lon="141.6660868562758">
        <ele>25.799999237060547</ele>
      </trkpt>
      <trkpt lat="44.030020935460925" lon="141.666047712788">
        <ele>26</ele>
      </trkpt>
      <trkpt lat="44.03004130348563" lon="141.66601954959333">
        <ele>26</ele>
      </trkpt>
      <trkpt lat="44.03006468899548" lon="141.66597940027714">
        <ele>26.200000762939453</ele>
      </trkpt>
      <trkpt lat="44.030085895210505" lon="141.665939418599">
        <ele>26.200000762939453</ele>
      </trkpt>
      <trkpt lat="44.03011238202453" lon="141.66589172556996">
        <ele>26.600000381469727</ele>
      </trkpt>
      <trkpt lat="44.03013316914439" lon="141.6658519115299">
        <ele>27</ele>
      </trkpt>
      <trkpt lat="44.0301413834095" lon="141.66581813246012">
        <ele>27.399999618530273</ele>
      </trkpt>
      <trkpt lat="44.030150854960084" lon="141.665772870183">
        <ele>27.799999237060547</ele>
      </trkpt>
      <trkpt lat="44.030162673443556" lon="141.6657281946391">
        <ele>28</ele>
      </trkpt>
      <trkpt lat="44.03017549775541" lon="141.66567161679268">
        <ele>28.399999618530273</ele>
      </trkpt>
      <trkpt lat="44.03018597513437" lon="141.66562308557332">
        <ele>28.600000381469727</ele>
      </trkpt>
      <trkpt lat="44.030189998447895" lon="141.66558410972357">
        <ele>29</ele>
      </trkpt>
      <trkpt lat="44.030197374522686" lon="141.66553549468517">
        <ele>29.200000762939453</ele>
      </trkpt>
      <trkpt lat="44.03020743280649" lon="141.6654858738184">
        <ele>29.600000381469727</ele>
      </trkpt>
      <trkpt lat="44.03021849691868" lon="141.665434576571">
        <ele>30</ele>
      </trkpt>
      <trkpt lat="44.03023291379213" lon="141.66537548415363">
        <ele>30.399999618530273</ele>
      </trkpt>
      <trkpt lat="44.03024389408529" lon="141.66533608920872">
        <ele>30.799999237060547</ele>
      </trkpt>
      <trkpt lat="44.0302552934736" lon="141.6652857977897">
        <ele>31</ele>
      </trkpt>
      <trkpt lat="44.03026451356709" lon="141.66523475199938">
        <ele>31.399999618530273</ele>
      </trkpt>
      <trkpt lat="44.03027851134539" lon="141.6651727259159">
        <ele>31.600000381469727</ele>
      </trkpt>
      <trkpt lat="44.030288653448224" lon="141.6651214286685">
        <ele>32</ele>
      </trkpt>
      <trkpt lat="44.03029661625624" lon="141.66508119553328">
        <ele>32.400001525878906</ele>
      </trkpt>
      <trkpt lat="44.030308770015836" lon="141.6650278866291">
        <ele>32.599998474121094</ele>
      </trkpt>
      <trkpt lat="44.030322935432196" lon="141.66497809812427">
        <ele>32.79999923706055</ele>
      </trkpt>
      <trkpt lat="44.03033500537276" lon="141.66491883806884">
        <ele>33</ele>
      </trkpt>
      <trkpt lat="44.03034565038979" lon="141.6648693010211">
        <ele>33.400001525878906</ele>
      </trkpt>
      <trkpt lat="44.03035671450198" lon="141.6648296546191">
        <ele>33.79999923706055</ele>
      </trkpt>
      <trkpt lat="44.03037096373737" lon="141.66478145867586">
        <ele>34.400001525878906</ele>
      </trkpt>
      <trkpt lat="44.030383536592126" lon="141.6647329274565">
        <ele>34.599998474121094</ele>
      </trkpt>
      <trkpt lat="44.030394768342376" lon="141.66468355804682">
        <ele>34.79999923706055</ele>
      </trkpt>
      <trkpt lat="44.030408933758736" lon="141.66463217698038">
        <ele>35</ele>
      </trkpt>
      <trkpt lat="44.03042226098478" lon="141.66458062827587">
        <ele>35.20000076293945</ele>
      </trkpt>
      <trkpt lat="44.03044179081917" lon="141.66453461162746">
        <ele>35.599998474121094</ele>
      </trkpt>
      <trkpt lat="44.030467523261905" lon="141.66449387557805">
        <ele>36</ele>
      </trkpt>
      <trkpt lat="44.03049945831299" lon="141.66446168906987">
        <ele>36.400001525878906</ele>
      </trkpt>
      <trkpt lat="44.03053575195372" lon="141.6644427459687">
        <ele>36.79999923706055</ele>
      </trkpt>
      <trkpt lat="44.03057581745088" lon="141.66443947702646">
        <ele>37</ele>
      </trkpt>
      <trkpt lat="44.03061621822417" lon="141.66445188224316">
        <ele>37.400001525878906</ele>
      </trkpt>
      <trkpt lat="44.03065360151231" lon="141.664475267753">
        <ele>37.599998474121094</ele>
      </trkpt>
      <trkpt lat="44.03069266118109" lon="141.66451608762145">
        <ele>38</ele>
      </trkpt>
      <trkpt lat="44.03071780689061" lon="141.66456026025116">
        <ele>38.20000076293945</ele>
      </trkpt>
      <trkpt lat="44.03073666617274" lon="141.66461113840342">
        <ele>38.400001525878906</ele>
      </trkpt>
      <trkpt lat="44.030741611495614" lon="141.6646597534418">
        <ele>38.79999923706055</ele>
      </trkpt>
      <trkpt lat="44.03073851019144" lon="141.66471691802144">
        <ele>39</ele>
      </trkpt>
      <trkpt lat="44.03072711080313" lon="141.66478464379907">
        <ele>39.400001525878906</ele>
      </trkpt>
      <trkpt lat="44.03071512468159" lon="141.66483988054097">
        <ele>39.599998474121094</ele>
      </trkpt>
      <trkpt lat="44.03070280328393" lon="141.66488405317068">
        <ele>39.79999923706055</ele>
      </trkpt>
      <trkpt lat="44.030687380582094" lon="141.66494004428387">
        <ele>40.20000076293945</ele>
      </trkpt>
      <trkpt lat="44.03067187406123" lon="141.66500148363411">
        <ele>40.599998474121094</ele>
      </trkpt>
      <trkpt lat="44.03065494261682" lon="141.66506979614496">
        <ele>40.79999923706055</ele>
      </trkpt>
      <trkpt lat="44.03064253740013" lon="141.66512545198202">
        <ele>41.20000076293945</ele>
      </trkpt>
      <trkpt lat="44.030630718916655" lon="141.66517172008753">
        <ele>41.400001525878906</ele>
      </trkpt>
      <trkpt lat="44.030615128576756" lon="141.6652273759246">
        <ele>41.599998474121094</ele>
      </trkpt>
      <trkpt lat="44.030600879341364" lon="141.66528269648552">
        <ele>41.79999923706055</ele>
      </trkpt>
      <trkpt lat="44.03058118186891" lon="141.66535100899637">
        <ele>42</ele>
      </trkpt>
      <trkpt lat="44.030563747510314" lon="141.66540859267116">
        <ele>42.20000076293945</ele>
      </trkpt>
      <trkpt lat="44.030553521588445" lon="141.66545645333827">
        <ele>42.400001525878906</ele>
      </trkpt>
      <trkpt lat="44.03054757043719" lon="141.66551596485078">
        <ele>42.79999923706055</ele>
      </trkpt>
      <trkpt lat="44.030551593750715" lon="141.66558352299035">
        <ele>43.20000076293945</ele>
      </trkpt>
      <trkpt lat="44.030567770823836" lon="141.6656320542097">
        <ele>43.400001525878906</ele>
      </trkpt>
      <trkpt lat="44.03058839030564" lon="141.66567337699234">
        <ele>43.79999923706055</ele>
      </trkpt>
      <trkpt lat="44.030611189082265" lon="141.66570774279535">
        <ele>44</ele>
      </trkpt>
      <trkpt lat="44.03062904253602" lon="141.66573355905712">
        <ele>44.400001525878906</ele>
      </trkpt>
      <trkpt lat="44.030657624825835" lon="141.66575434617698">
        <ele>44.599998474121094</ele>
      </trkpt>
      <trkpt lat="44.030690398067236" lon="141.66575853712857">
        <ele>45.400001525878906</ele>
      </trkpt>
      <trkpt lat="44.030723087489605" lon="141.66575602255762">
        <ele>46</ele>
      </trkpt>
      <trkpt lat="44.03075695037842" lon="141.66574428789318">
        <ele>46.20000076293945</ele>
      </trkpt>
      <trkpt lat="44.03078720904887" lon="141.66571721434593">
        <ele>46.599998474121094</ele>
      </trkpt>
      <trkpt lat="44.03081143274903" lon="141.66568318381906">
        <ele>46.79999923706055</ele>
      </trkpt>
      <trkpt lat="44.030834566801786" lon="141.66564546525478">
        <ele>47</ele>
      </trkpt>
      <trkpt lat="44.03085392899811" lon="141.6656053159386">
        <ele>47.20000076293945</ele>
      </trkpt>
      <trkpt lat="44.03086901642382" lon="141.66556256823242">
        <ele>47.79999923706055</ele>
      </trkpt>
      <trkpt lat="44.0308803319931" lon="141.66551906615496">
        <ele>48.20000076293945</ele>
      </trkpt>
      <trkpt lat="44.03089324012399" lon="141.66547749191523">
        <ele>48.400001525878906</ele>
      </trkpt>
      <trkpt lat="44.03090950101614" lon="141.66543533094227">
        <ele>49</ele>
      </trkpt>
      <trkpt lat="44.03093045577407" lon="141.66538470424712">
        <ele>49.20000076293945</ele>
      </trkpt>
      <trkpt lat="44.0309479739517" lon="141.66533994488418">
        <ele>49.79999923706055</ele>
      </trkpt>
      <trkpt lat="44.03096088208258" lon="141.6653040703386">
        <ele>50</ele>
      </trkpt>
      <trkpt lat="44.0309770591557" lon="141.6652596462518">
        <ele>50.20000076293945</ele>
      </trkpt>
      <trkpt lat="44.03099415823817" lon="141.6652165632695">
        <ele>50.599998474121094</ele>
      </trkpt>
      <trkpt lat="44.031014274805784" lon="141.66516149416566">
        <ele>50.79999923706055</ele>
      </trkpt>
      <trkpt lat="44.031031960621476" lon="141.6651177406311">
        <ele>51.20000076293945</ele>
      </trkpt>
      <trkpt lat="44.031045623123646" lon="141.6650801897049">
        <ele>51.400001525878906</ele>
      </trkpt>
      <trkpt lat="44.031059788540006" lon="141.66503065265715">
        <ele>51.79999923706055</ele>
      </trkpt>
      <trkpt lat="44.03107185848057" lon="141.66498245671391">
        <ele>52</ele>
      </trkpt>
      <trkpt lat="44.0310877840966" lon="141.66492470540106">
        <ele>52.20000076293945</ele>
      </trkpt>
      <trkpt lat="44.03110052458942" lon="141.66487600654364">
        <ele>52.79999923706055</ele>
      </trkpt>
      <trkpt lat="44.03111016377807" lon="141.66483795270324">
        <ele>53</ele>
      </trkpt>
      <trkpt lat="44.0311189647764" lon="141.66479227133095">
        <ele>53.400001525878906</ele>
      </trkpt>
      <trkpt lat="44.03112508356571" lon="141.66474441066384">
        <ele>53.599998474121094</ele>
      </trkpt>
      <trkpt lat="44.03112852014601" lon="141.6646848153323">
        <ele>53.79999923706055</ele>
      </trkpt>
      <trkpt lat="44.03112843632698" lon="141.66463519446552">
        <ele>54.20000076293945</ele>
      </trkpt>
      <trkpt lat="44.03112726286054" lon="141.6645952127874">
        <ele>54.400001525878906</ele>
      </trkpt>
      <trkpt lat="44.0311239939183" lon="141.66454693302512">
        <ele>55</ele>
      </trkpt>
      <trkpt lat="44.03111435472965" lon="141.66448993608356">
        <ele>55.20000076293945</ele>
      </trkpt>
      <trkpt lat="44.03110429644585" lon="141.66445313952863">
        <ele>55.599998474121094</ele>
      </trkpt>
      <trkpt lat="44.03109038248658" lon="141.6644062846899">
        <ele>55.79999923706055</ele>
      </trkpt>
      <trkpt lat="44.03107705526054" lon="141.66435909457505">
        <ele>56.20000076293945</ele>
      </trkpt>
      <trkpt lat="44.03106255456805" lon="141.66431391611695">
        <ele>56.400001525878906</ele>
      </trkpt>
      <trkpt lat="44.031042102724314" lon="141.66426052339375">
        <ele>56.79999923706055</ele>
      </trkpt>
      <trkpt lat="44.0310219861567" lon="141.66421827860177">
        <ele>57.20000076293945</ele>
      </trkpt>
      <trkpt lat="44.03100287541747" lon="141.66417460888624">
        <ele>57.599998474121094</ele>
      </trkpt>
      <trkpt lat="44.03098518960178" lon="141.66414158418775">
        <ele>57.79999923706055</ele>
      </trkpt>
      <trkpt lat="44.03096138499677" lon="141.66410227306187">
        <ele>58.20000076293945</ele>
      </trkpt>
      <trkpt lat="44.03094026260078" lon="141.6640587709844">
        <ele>58.400001525878906</ele>
      </trkpt>
      <trkpt lat="44.03091796673834" lon="141.66400068439543">
        <ele>58.599998474121094</ele>
      </trkpt>
      <trkpt lat="44.030897095799446" lon="141.66395047679543">
        <ele>59.20000076293945</ele>
      </trkpt>
      <trkpt lat="44.030881337821484" lon="141.6639091540128">
        <ele>59.400001525878906</ele>
      </trkpt>
      <trkpt lat="44.03086591511965" lon="141.663856850937">
        <ele>59.599998474121094</ele>
      </trkpt>
      <trkpt lat="44.030857952311635" lon="141.6638021171093">
        <ele>59.79999923706055</ele>
      </trkpt>
      <trkpt lat="44.0308581199497" lon="141.66374386288226">
        <ele>60</ele>
      </trkpt>
      <trkpt lat="44.030876979231834" lon="141.66367932222784">
        <ele>60.400001525878906</ele>
      </trkpt>
      <trkpt lat="44.030907740816474" lon="141.66364269331098">
        <ele>60.599998474121094</ele>
      </trkpt>
      <trkpt lat="44.03093875385821" lon="141.66362760588527">
        <ele>60.79999923706055</ele>
      </trkpt>
      <trkpt lat="44.03097856789827" lon="141.66362458840013">
        <ele>61.400001525878906</ele>
      </trkpt>
      <trkpt lat="44.031026009470224" lon="141.6636419389397">
        <ele>61.400001525878906</ele>
      </trkpt>
      <trkpt lat="44.0310600399971" lon="141.6636749636382">
        <ele>61.79999923706055</ele>
      </trkpt>
      <trkpt lat="44.03108677826822" lon="141.6637207288295">
        <ele>62</ele>
      </trkpt>
      <trkpt lat="44.0311068110168" lon="141.6637603752315">
        <ele>62.20000076293945</ele>
      </trkpt>
      <trkpt lat="44.03112952597439" lon="141.6638087388128">
        <ele>62.20000076293945</ele>
      </trkpt>
      <trkpt lat="44.0311551745981" lon="141.6638687532395">
        <ele>62.599998474121094</ele>
      </trkpt>
      <trkpt lat="44.03117679990828" lon="141.66392021812499">
        <ele>63.20000076293945</ele>
      </trkpt>
      <trkpt lat="44.03119909577072" lon="141.6639707610011">
        <ele>63.400001525878906</ele>
      </trkpt>
      <trkpt lat="44.03121636249125" lon="141.66401032358408">
        <ele>63.79999923706055</ele>
      </trkpt>
      <trkpt lat="44.031233210116625" lon="141.6640608664602">
        <ele>64</ele>
      </trkpt>
      <trkpt lat="44.031252237036824" lon="141.66411031968892">
        <ele>64.19999694824219</ele>
      </trkpt>
      <trkpt lat="44.03127956204116" lon="141.66416220366955">
        <ele>64.4000015258789</ele>
      </trkpt>
      <trkpt lat="44.03129649348557" lon="141.66419413872063">
        <ele>64.5999984741211</ele>
      </trkpt>
      <trkpt lat="44.03131501749158" lon="141.6642410773784">
        <ele>65</ele>
      </trkpt>
      <trkpt lat="44.031334631145" lon="141.66428675875068">
        <ele>65.4000015258789</ele>
      </trkpt>
      <trkpt lat="44.031354412436485" lon="141.66434048675">
        <ele>66</ele>
      </trkpt>
      <trkpt lat="44.03136866167188" lon="141.6643822286278">
        <ele>66.19999694824219</ele>
      </trkpt>
      <trkpt lat="44.03138400055468" lon="141.66442288085818">
        <ele>66.80000305175781</ele>
      </trkpt>
      <trkpt lat="44.031398836523294" lon="141.66445691138506">
        <ele>66.80000305175781</ele>
      </trkpt>
      <trkpt lat="44.03141752816737" lon="141.6645030118525">
        <ele>67.4000015258789</ele>
      </trkpt>
      <trkpt lat="44.031440326943994" lon="141.66455565020442">
        <ele>67.80000305175781</ele>
      </trkpt>
      <trkpt lat="44.031458012759686" lon="141.66459638625383">
        <ele>67.80000305175781</ele>
      </trkpt>
      <trkpt lat="44.031477542594075" lon="141.66463519446552">
        <ele>68.4000015258789</ele>
      </trkpt>
      <trkpt lat="44.03149539604783" lon="141.66467090137303">
        <ele>68.4000015258789</ele>
      </trkpt>
      <trkpt lat="44.03151601552963" lon="141.66471767239273">
        <ele>69</ele>
      </trkpt>
      <trkpt lat="44.03153738938272" lon="141.6647693887353">
        <ele>69.19999694824219</ele>
      </trkpt>
      <trkpt lat="44.03154971078038" lon="141.66480266489089">
        <ele>69.5999984741211</ele>
      </trkpt>
      <trkpt lat="44.0315748564899" lon="141.66485362686217">
        <ele>70.19999694824219</ele>
      </trkpt>
      <trkpt lat="44.03159128502011" lon="141.66489117778838">
        <ele>70.4000015258789</ele>
      </trkpt>
      <trkpt lat="44.03161399997771" lon="141.6649401281029">
        <ele>70.80000305175781</ele>
      </trkpt>
      <trkpt lat="44.03163897804916" lon="141.66499947197735">
        <ele>71.19999694824219</ele>
      </trkpt>
      <trkpt lat="44.03166001662612" lon="141.66504817083478">
        <ele>71.5999984741211</ele>
      </trkpt>
      <trkpt lat="44.031677367165685" lon="141.66508991271257">
        <ele>71.80000305175781</ele>
      </trkpt>
      <trkpt lat="44.031698824837804" lon="141.66514120995998">
        <ele>72</ele>
      </trkpt>
      <trkpt lat="44.03171542100608" lon="141.6651954408735">
        <ele>72.4000015258789</ele>
      </trkpt>
      <trkpt lat="44.03172732330859" lon="141.66525243781507">
        <ele>72.5999984741211</ele>
      </trkpt>
      <trkpt lat="44.03174257837236" lon="141.66531102731824">
        <ele>72.80000305175781</ele>
      </trkpt>
      <trkpt lat="44.03176177293062" lon="141.6653664316982">
        <ele>73</ele>
      </trkpt>
      <trkpt lat="44.03178398497403" lon="141.665424015373">
        <ele>73.4000015258789</ele>
      </trkpt>
      <trkpt lat="44.03180921450257" lon="141.6654805932194">
        <ele>73.4000015258789</ele>
      </trkpt>
      <trkpt lat="44.031834695488214" lon="141.66553624905646">
        <ele>74</ele>
      </trkpt>
      <trkpt lat="44.03185590170324" lon="141.66559198871255">
        <ele>74.19999694824219</ele>
      </trkpt>
      <trkpt lat="44.03187811374664" lon="141.6656502429396">
        <ele>74.4000015258789</ele>
      </trkpt>
      <trkpt lat="44.03190300799906" lon="141.66571059264243">
        <ele>74.80000305175781</ele>
      </trkpt>
      <trkpt lat="44.03192840516567" lon="141.66577228344977">
        <ele>75</ele>
      </trkpt>
      <trkpt lat="44.03196193277836" lon="141.66584545746446">
        <ele>75.4000015258789</ele>
      </trkpt>
      <trkpt lat="44.03198649175465" lon="141.6658957488835">
        <ele>75.4000015258789</ele>
      </trkpt>
      <trkpt lat="44.032021444290876" lon="141.66595743969083">
        <ele>75.5999984741211</ele>
      </trkpt>
      <trkpt lat="44.03206301853061" lon="141.66601753793657">
        <ele>75.80000305175781</ele>
      </trkpt>
      <trkpt lat="44.03211213648319" lon="141.66606497950852">
        <ele>76</ele>
      </trkpt>
      <trkpt lat="44.032166954129934" lon="141.66608937084675">
        <ele>76.19999694824219</ele>
      </trkpt>
      <trkpt lat="44.03222445398569" lon="141.66608626954257">
        <ele>76.19999694824219</ele>
      </trkpt>
      <trkpt lat="44.03228027746081" lon="141.6660453658551">
        <ele>76.19999694824219</ele>
      </trkpt>
      <trkpt lat="44.03232688084245" lon="141.66597889736295">
        <ele>76.4000015258789</ele>
      </trkpt>
      <trkpt lat="44.03236753307283" lon="141.66590572334826">
        <ele>76.5999984741211</ele>
      </trkpt>
      <trkpt lat="44.03240131214261" lon="141.66582399979234">
        <ele>76.80000305175781</ele>
      </trkpt>
      <trkpt lat="44.03242997825146" lon="141.66573422960937">
        <ele>77</ele>
      </trkpt>
      <trkpt lat="44.03245805762708" lon="141.66564194485545">
        <ele>77</ele>
      </trkpt>
    </trkseg>
  </trk>
</gpx>